{
  "type": "FeatureCollection",
  "features": [
    {
      "type": "Feature",
      "properties": {
        "norad_id": 39617,
        "name": "ASTRA 5B (EGNOS/PRN 123)",
        "group": "gnss",
        "lat": -0.04267302805827547,
        "lon": -23.512172776448807,
        "alt_km": 35774.43514632071,
        "timestamp": "2025-12-27T14:26:30.763891+00:00",
        "meta_object_name": "ASTRA 5B (EGNOS/PRN 123)",
        "meta_object_id": "2014-011B",
        "meta_epoch": "2025-12-27T06:15:51.530976",
        "meta_mean_motion": 1.00271869,
        "meta_eccentricity": 0.0004764,
        "meta_inclination": 0.0468,
        "meta_ra_of_asc_node": 20.2943,
        "meta_arg_of_pericenter": 261.3031,
        "meta_mean_anomaly": 291.8534,
        "meta_ephemeris_type": 0,
        "meta_classification_type": "U",
        "meta_norad_cat_id": 39617,
        "meta_element_set_no": 999,
        "meta_rev_at_epoch": 4294,
        "meta_bstar": 0,
        "meta_mean_motion_dot": 1.59e-06,
        "meta_mean_motion_ddot": 0,
        "tle_line1": "1 39617U 14011B   25361.26101309  .00000159  00000+0  00000+0 0  9995",
        "tle_line2": "2 39617   0.0468  20.2943 0004764 261.3031 291.8534  1.00271869 42948"
      },
      "geometry": {
        "type": "Point",
        "coordinates": [
          -23.512172776448807,
          -0.04267302805827547
        ]
      }
    },
    {
      "type": "Feature",
      "properties": {
        "norad_id": 39620,
        "name": "COSMOS 2492 (754)",
        "group": "gnss",
        "lat": 8.784639665684042,
        "lon": -36.18915024262126,
        "alt_km": 19108.499993234866,
        "timestamp": "2025-12-27T14:26:30.763902+00:00",
        "meta_object_name": "COSMOS 2492 (754)",
        "meta_object_id": "2014-012A",
        "meta_epoch": "2025-12-26T15:36:55.855008",
        "meta_mean_motion": 2.13103318,
        "meta_eccentricity": 0.00143264,
        "meta_inclination": 65.4001,
        "meta_ra_of_asc_node": 319.7994,
        "meta_arg_of_pericenter": 314.1039,
        "meta_mean_anomaly": 45.7823,
        "meta_ephemeris_type": 0,
        "meta_classification_type": "U",
        "meta_norad_cat_id": 39620,
        "meta_element_set_no": 999,
        "meta_rev_at_epoch": 9156,
        "meta_bstar": 0,
        "meta_mean_motion_dot": -3.5e-07,
        "meta_mean_motion_ddot": 0,
        "tle_line1": "1 39620U 14012A   25360.65064647 -.00000035  00000+0  00000+0 0  9999",
        "tle_line2": "2 39620  65.4001 319.7994 0014326 314.1039  45.7823  2.13103318 91569"
      },
      "geometry": {
        "type": "Point",
        "coordinates": [
          -36.18915024262126,
          8.784639665684042
        ]
      }
    },
    {
      "type": "Feature",
      "properties": {
        "norad_id": 39635,
        "name": "IRNSS-1B",
        "group": "gnss",
        "lat": 23.73313594940839,
        "lon": 11.605240839830333,
        "alt_km": 35731.17777295095,
        "timestamp": "2025-12-27T14:26:30.763914+00:00",
        "meta_object_name": "IRNSS-1B",
        "meta_object_id": "2014-017A",
        "meta_epoch": "2025-12-26T18:07:21.625824",
        "meta_mean_motion": 1.00272789,
        "meta_eccentricity": 0.0018552,
        "meta_inclination": 29.2303,
        "meta_ra_of_asc_node": 243.3531,
        "meta_arg_of_pericenter": 173.082,
        "meta_mean_anomaly": 6.0255,
        "meta_ephemeris_type": 0,
        "meta_classification_type": "U",
        "meta_norad_cat_id": 39635,
        "meta_element_set_no": 999,
        "meta_rev_at_epoch": 4306,
        "meta_bstar": 0,
        "meta_mean_motion_dot": 1.37e-06,
        "meta_mean_motion_ddot": 0,
        "tle_line1": "1 39635U 14017A   25360.75511141  .00000137  00000+0  00000+0 0  9999",
        "tle_line2": "2 39635  29.2303 243.3531 0018552 173.0820   6.0255  1.00272789 43067"
      },
      "geometry": {
        "type": "Point",
        "coordinates": [
          11.605240839830333,
          23.73313594940839
        ]
      }
    },
    {
      "type": "Feature",
      "properties": {
        "norad_id": 39727,
        "name": "LUCH 5V (SDCM/PRN 141)",
        "group": "gnss",
        "lat": -1.8779931929548044,
        "lon": 47.81603263353834,
        "alt_km": 35794.576315643884,
        "timestamp": "2025-12-27T14:26:30.763925+00:00",
        "meta_object_name": "LUCH 5V (SDCM/PRN 141)",
        "meta_object_id": "2014-023A",
        "meta_epoch": "2025-12-27T06:36:12.083040",
        "meta_mean_motion": 1.00273088,
        "meta_eccentricity": 0.00038599,
        "meta_inclination": 4.7041,
        "meta_ra_of_asc_node": 71.4139,
        "meta_arg_of_pericenter": 214.7361,
        "meta_mean_anomaly": 3.6616,
        "meta_ephemeris_type": 0,
        "meta_classification_type": "U",
        "meta_norad_cat_id": 39727,
        "meta_element_set_no": 999,
        "meta_rev_at_epoch": 4263,
        "meta_bstar": 0,
        "meta_mean_motion_dot": -2.49e-06,
        "meta_mean_motion_ddot": 0,
        "tle_line1": "1 39727U 14023A   25361.27513985 -.00000249  00000+0  00000+0 0  9999",
        "tle_line2": "2 39727   4.7041  71.4139 0003859 214.7361   3.6616  1.00273088 42636"
      },
      "geometry": {
        "type": "Point",
        "coordinates": [
          47.81603263353834,
          -1.8779931929548044
        ]
      }
    },
    {
      "type": "Feature",
      "properties": {
        "norad_id": 39741,
        "name": "GPS BIIF-6  (PRN 06)",
        "group": "gnss",
        "lat": 52.36423152155352,
        "lon": 99.30364318068264,
        "alt_km": 20266.32574640418,
        "timestamp": "2025-12-27T14:26:30.763937+00:00",
        "meta_object_name": "GPS BIIF-6  (PRN 06)",
        "meta_object_id": "2014-026A",
        "meta_epoch": "2025-12-26T22:52:18.642720",
        "meta_mean_motion": 2.00560233,
        "meta_eccentricity": 0.0039524,
        "meta_inclination": 56.578,
        "meta_ra_of_asc_node": 338.2238,
        "meta_arg_of_pericenter": 319.4951,
        "meta_mean_anomaly": 40.2191,
        "meta_ephemeris_type": 0,
        "meta_classification_type": "U",
        "meta_norad_cat_id": 39741,
        "meta_element_set_no": 999,
        "meta_rev_at_epoch": 8508,
        "meta_bstar": 0,
        "meta_mean_motion_dot": -5.7e-07,
        "meta_mean_motion_ddot": 0,
        "tle_line1": "1 39741U 14026A   25360.95299355 -.00000057  00000+0  00000+0 0  9991",
        "tle_line2": "2 39741  56.5780 338.2238 0039524 319.4951  40.2191  2.00560233 85080"
      },
      "geometry": {
        "type": "Point",
        "coordinates": [
          99.30364318068264,
          52.36423152155352
        ]
      }
    },
    {
      "type": "Feature",
      "properties": {
        "norad_id": 40001,
        "name": "COSMOS 2500 (755)",
        "group": "gnss",
        "lat": -50.19906700252431,
        "lon": 172.95795561927966,
        "alt_km": 19116.90896400728,
        "timestamp": "2025-12-27T14:26:30.763949+00:00",
        "meta_object_name": "COSMOS 2500 (755)",
        "meta_object_id": "2014-032A",
        "meta_epoch": "2025-12-26T08:28:54.444288",
        "meta_mean_motion": 2.13106178,
        "meta_eccentricity": 0.0007619,
        "meta_inclination": 65.3358,
        "meta_ra_of_asc_node": 319.5702,
        "meta_arg_of_pericenter": 219.616,
        "meta_mean_anomaly": 140.3327,
        "meta_ephemeris_type": 0,
        "meta_classification_type": "U",
        "meta_norad_cat_id": 40001,
        "meta_element_set_no": 999,
        "meta_rev_at_epoch": 8977,
        "meta_bstar": 0,
        "meta_mean_motion_dot": -3.4e-07,
        "meta_mean_motion_ddot": 0,
        "tle_line1": "1 40001U 14032A   25360.35340792 -.00000034  00000+0  00000+0 0  9990",
        "tle_line2": "2 40001  65.3358 319.5702 0007619 219.6160 140.3327  2.13106178 89772"
      },
      "geometry": {
        "type": "Point",
        "coordinates": [
          172.95795561927966,
          -50.19906700252431
        ]
      }
    },
    {
      "type": "Feature",
      "properties": {
        "norad_id": 40105,
        "name": "GPS BIIF-7  (PRN 09)",
        "group": "gnss",
        "lat": 36.171509833425766,
        "lon": 125.7803997407544,
        "alt_km": 20153.45828457054,
        "timestamp": "2025-12-27T14:26:30.763960+00:00",
        "meta_object_name": "GPS BIIF-7  (PRN 09)",
        "meta_object_id": "2014-045A",
        "meta_epoch": "2025-12-23T13:11:32.096256",
        "meta_mean_motion": 2.00573211,
        "meta_eccentricity": 0.00324114,
        "meta_inclination": 55.2352,
        "meta_ra_of_asc_node": 95.4677,
        "meta_arg_of_pericenter": 120.1575,
        "meta_mean_anomaly": 240.1743,
        "meta_ephemeris_type": 0,
        "meta_classification_type": "U",
        "meta_norad_cat_id": 40105,
        "meta_element_set_no": 999,
        "meta_rev_at_epoch": 8255,
        "meta_bstar": 0,
        "meta_mean_motion_dot": 8e-08,
        "meta_mean_motion_ddot": 0,
        "tle_line1": "1 40105U 14045A   25357.54967704  .00000008  00000+0  00000+0 0  9994",
        "tle_line2": "2 40105  55.2352  95.4677 0032411 120.1575 240.1743  2.00573211 82556"
      },
      "geometry": {
        "type": "Point",
        "coordinates": [
          125.7803997407544,
          36.171509833425766
        ]
      }
    }
  ]
}